E-ST@R-II               
1 41459U 16025D   22072.68136126  .00015085  00000+0  69311-3 0  9994
2 41459  98.1735 230.9826 0151775 233.7480 124.9822 15.10720316323025
AAUSAT 4                
1 41460U 16025E   22072.40473275  .00022579  00000+0  95160-3 0  9992
2 41460  98.1689 236.1029 0136369 213.4463 145.8553 15.15186980323375
BEESAT-4                
1 41619U 16040W   22072.41182195  .00012137  00000+0  44253-3 0  9990
2 41619  97.2322 125.7385 0011636  98.9694 261.2864 15.28245425306041
CANX-7                  
1 41788U 16059F   22072.84154185  .00270415  00000+0  14395-1 0  9999
2 41788  98.2198 196.2209 0008679 340.1610 143.3231 15.13895546294088
RAVAN                   
1 41849U 16067B   22072.80798842  .00004005  00000+0  32720-3 0  9990
2 41849  97.9927 207.1362 0011647 294.2254  65.7751 14.99947426291658
CELTEE 1                
1 41850U 16067C   22072.80724308  .00002438  00000+0  21197-3 0  9992
2 41850  97.9801 202.5741 0008054 298.5827  61.4584 14.97949307291433
OPTICUBE 04             
1 41851U 16067D   22072.81656842  .00001671  00000+0  14888-3 0  9998
2 41851  97.9789 201.7467 0007831 301.3953  58.6502 14.97438844291392
AEROCUBE 8D             
1 41852U 16067E   22072.85492819  .00002773  00000+0  24130-3 0  9990
2 41852  97.9795 201.7302 0008253 305.0140  55.0306 14.97787618291384
AEROCUBE 8C             
1 41853U 16067F   22072.29964201  .00003502  00000+0  30363-3 0  9994
2 41853  97.9775 200.9971 0008246 305.9501  54.0954 14.97742896291295
PROMETHEUS 2-1          
1 41854U 16067G   22072.86552549  .00004371  00000+0  36980-3 0  9992
2 41854  97.9790 202.4821 0009484 301.5775  58.4521 14.98556067291421
PROMETHEUS 2-3          
1 41855U 16067H   22072.85963132  .00004641  00000+0  39201-3 0  9995
2 41855  97.9804 202.5466 0009233 303.9061  56.1282 14.98584981291425
INS-1B                  
1 41954U 17008G   22072.43918466  .00011200  00000+0  40242-3 0  9991
2 41954  97.2714 134.4397 0007641 207.9033 152.1798 15.28786296282063
BGUSAT                  
1 41999U 17008BD  22072.49394092  .00022612  00000+0  66774-3 0  9996
2 41999  97.2926 143.6196 0006260 200.2023 159.8974 15.34952277281898
DIDO-2                  
1 42000U 17008BE  22072.40740158  .00007276  00000+0  27697-3 0  9999
2 42000  97.2706 134.1637 0006579 232.1335 127.9309 15.27016728281405
PEASSS                  
1 42015U 17008BV  22072.41546929  .00009634  00000+0  34210-3 0  9995
2 42015  97.2761 137.5234 0004678 224.3765 135.7101 15.29228189282080
AL-FARABI 1             
1 42016U 17008BW  22072.45695612  .00013880  00000+0  46243-3 0  9991
2 42016  97.2819 140.1410 0004611 218.6156 141.4757 15.31210638282341
NAYIF-1 (EO-88)         
1 42017U 17008BX  22072.67486033  .00014135  00000+0  46953-3 0  9993
2 42017  97.2813 140.3619 0004696 216.8959 143.1960 15.31302437282404
UCLSAT                  
1 42765U 17036A   22072.54748398  .00010432  00000+0  39269-3 0  9993
2 42765  97.2129 118.3158 0008555 310.5356  49.5138 15.27259172263203
LITUANICASAT-2          
1 42768U 17036D   22072.38549398  .00018364  00000+0  62151-3 0  9995
2 42768  97.2219 120.0978 0010446 291.9606  68.0525 15.30599594262538
AALTO-1                 
1 42775U 17036L   22072.56088997  .00006369  00000+0  26420-3 0  9997
2 42775  97.2124 113.9216 0011510 310.5210  49.5025 15.24139716262166
URSA MAIOR              
1 42776U 17036M   22072.83451790  .00009207  00000+0  37587-3 0  9993
2 42776  97.2136 114.8283 0011194 308.1458  51.8771 15.24560381262237
COMPASS 2               
1 42777U 17036N   22072.39800951  .00014436  00000+0  51476-3 0  9995
2 42777  97.2203 119.8287 0008990 296.2866  63.7450 15.28962489262451
DIAMOND RED             
1 42783U 17036U   22072.68452963  .00008132  00000+0  32173-3 0  9999
2 42783  97.2146 116.8309 0009702 316.0963  43.9504 15.25665409262333
PEGASUS                 
1 42784U 17036V   22072.35569644  .00009269  00000+0  35622-3 0  9993
2 42784  97.2144 117.4868 0009353 314.3495  45.6977 15.26598939262340
DIAMOND GREEN           
1 42785U 17036W   22072.81452150  .00007618  00000+0  30168-3 0  9994
2 42785  97.2149 117.0164 0009523 316.3270  43.7214 15.25657094262343
DIAMOND BLUE            
1 42786U 17036X   22072.55136794  .00008256  00000+0  32650-3 0  9996
2 42786  97.2149 116.7544 0009546 317.8366  42.2137 15.25673974262386
NUDTSAT                 
1 42787U 17036Y   22072.59178240  .00014769  00000+0  51308-3 0  9990
2 42787  97.2178 121.2061 0007723 300.2052  59.8426 15.29819976262425
SUCHAI                  
1 42788U 17036Z   22072.38047730  .00011186  00000+0  41329-3 0  9999
2 42788  97.2153 118.9175 0008684 309.2125  50.8343 15.27856696262501
SKCUBE                  
1 42789U 17036AA  22072.40434600  .00010756  00000+0  40335-3 0  9997
2 42789  97.2149 118.4985 0008683 310.1975  49.8504 15.27376431262404
VZLUSAT-1               
1 42790U 17036AB  22072.07011287  .00014520  00000+0  50556-3 0  9993
2 42790  97.2179 120.6785 0007681 303.2525  56.7980 15.29750353262498
ROBUSTA-1B              
1 42792U 17036AD  22072.38812015  .00011044  00000+0  40930-3 0  9990
2 42792  97.2148 118.9830 0008250 310.5249  49.5272 15.27761848262442
CICERO 6                
1 42793U 17036AE  22072.57231926  .00007066  00000+0  27969-3 0  9994
2 42793  97.2126 117.3016 0008089 317.5141  42.5471 15.25711239262447
CORVUS BC2              
1 42846U 17042X   22072.55979023  .00001627  00000+0  16307-3 0  9996
2 42846  97.4370 295.2329 0008626 326.3752  33.6920 14.92606353253976
CORVUS BC1              
1 42847U 17042Y   22072.58001856  .00001412  00000+0  14188-3 0  9997
2 42847  97.4373 295.5403 0008273 325.5921  34.4762 14.92706455253981
MIRATA                  
1 43015U 17073C   22072.22444361  .00005793  00000+0  43015-3 0  9999
2 43015  97.6847 331.1548 0244881 136.8577 225.2116 14.82448484233009
MAKERSAT 0              
1 43016U 17073D   22072.69969439  .00004278  00000+0  32321-3 0  9994
2 43016  97.6874 331.3769 0250350 138.8485 223.1909 14.81193539233009
AEROCUBE 7B (OCSD B)    
1 43042U 17071F   22072.54292749  .00060031  00000+0  72646-3 0  9991
2 43042  51.6343 171.7704 0002630 294.4379  65.6339 15.60092923240637
AEROCUBE 7C (OCSD C)    
1 43043U 17071G   22072.43501827  .00053196  00000+0  66211-3 0  9995
2 43043  51.6333 173.2706 0002758 288.5136  71.5557 15.59403930240575
ASGARDIA 1              
1 43049U 17071N   22072.84318241  .00070184  00000+0  91047-3 0  9993
2 43049  51.6346 171.6795 0002524 322.2455  37.8360 15.58190939240620
PROPCUBE 2 (FAUNA)      
1 43052U 17071R   22072.49584102  .00057164  00000+0  67357-3 0  9999
2 43052  51.6318 167.0681 0002956 330.6995  29.3832 15.60809770240653
CORVUS BC3              
1 43118U 18004H   22072.79954216  .00008823  00000+0  34747-3 0  9994
2 43118  97.3720 146.8110 0009028 350.0073  10.0984 15.25806537231623
MICROMAS-2A             
1 43131U 18004W   22072.45252338  .00018034  00000+0  59514-3 0  9992
2 43131  97.3831 151.8294 0006603 336.3682  23.7255 15.31452675231864
SPACEBEE-4              
1 43139U 18004AE  22072.46171146  .00029245  00000+0  83349-3 0  9997
2 43139  97.3916 155.7141 0005450 326.1670  33.9225 15.36023533232079
SPACEBEE-3              
1 43140U 18004AF  22072.82886200  .00061359  00000+0  15087-2 0  9998
2 43140  97.3963 158.7709 0004690 311.3736  48.7106 15.40412380232282
SPACEBEE-2              
1 43141U 18004AG  22072.21931848  .00049995  00000+0  11682-2 0  9990
2 43141  97.3987 159.1902 0004240 307.8739  52.2124 15.42010569232244
SPACEBEE-1              
1 43142U 18004AH  22072.51582689  .00061463  00000+0  13342-2 0  9998
2 43142  97.4003 160.5858 0004443 298.8671  61.2131 15.44157021232346
CICERO 7                
1 43143U 18004AJ  22072.18875313  .00013591  00000+0  46302-3 0  9993
2 43143  97.3808 151.3966 0005565 355.0350   5.0835 15.30492172231837
GOMX-4B                 
1 43196U 18015E   22072.37801674  .00003899  00000+0  15458-3 0  9991
2 43196  97.5162 211.0544 0018703  38.8414 321.4164 15.25846194228502
GOMX-4A                 
1 43197U 18015F   22072.79017709  .00008732  00000+0  32971-3 0  9996
2 43197  97.5150 212.0424 0018101  37.5781  96.4206 15.27105139228610
AEROCUBE 12A            
1 43556U 18046C   22072.22787802  .00015093  00000+0  44257-3 0  9993
2 43556  51.6378 291.5518 0006580  58.0519 302.1103 15.35363643204514
AEROCUBE 12B            
1 43557U 18046D   22072.33102170  .00012497  00000+0  38215-3 0  9997
2 43557  51.6398 294.4320 0007086  54.8020 305.3624 15.34205131204433
SURFSAT                 
1 43614U 18070B   22072.53727374  .00027159  00000+0  51951-3 0  9992
2 43614  93.0232  58.2757 0014497  49.1808 311.0705 15.47876234196198
CP7 (DAVE)              
1 43615U 18070C   22072.49253171  .00027322  00000+0  53341-3 0  9994
2 43615  93.0234  58.1615 0014752  49.7163 310.5382 15.47281388196169
ELFIN-B                 
1 43616U 18070D   22072.48491429  .00043340  00000+0  66933-3 0  9993
2 43616  93.0167  58.8836 0013549  46.0695 314.1683 15.53869532196399
ELFIN-A                 
1 43617U 18070E   22072.71105468  .00049685  00000+0  73840-3 0  9998
2 43617  93.0238  60.1379 0012289  44.0514 316.1726 15.54923696196466
CUBEBEL-1 (BSUSAT-1)    
1 43666U 18083E   22072.75910400  .00010616  00000+0  47663-3 0  9996
2 43666  97.4316 102.6106 0012211 312.7016 178.1092 15.21288019186921
CICERO 10               
1 43690U 18088A   22072.56759908  .00009029  00000+0  38068-3 0  9996
2 43690  85.0400  19.8871 0015871 132.9802 227.2774 15.23044172185152
IRVINE01                
1 43693U 18088D   22072.85931344  .00039634  00000+0  13056-2 0  9991
2 43693  85.0345  15.2994 0017741 103.5980 256.7245 15.31151816185566
PROXIMA I               
1 43694U 18088E   22072.82561749  .00010668  00000+0  42697-3 0  9997
2 43694  85.0340  16.6480 0020502 105.0175 255.3339 15.24728450185384
